{"type": "FeatureCollection", "features": [{"type": "Feature", "properties": {"norad_id": 50032, "name": "COSMOS 1408 DEB", "group": "cosmos-1408-debris", "lat": 82.44644459370805, "lon": 145.54229325249008, "alt_km": 417.8589069928603, "timestamp": "2025-12-25T07:00:34.316303+00:00", "meta": {"OBJECT_NAME": "COSMOS 1408 DEB", "OBJECT_ID": "1982-092RU", "EPOCH": "2025-12-24T15:04:46.514496", "MEAN_MOTION": 15.4580971, "ECCENTRICITY": 0.00164657, "INCLINATION": 82.5629, "RA_OF_ASC_NODE": 46.3227, "ARG_OF_PERICENTER": 164.7636, "MEAN_ANOMALY": 195.4112, "EPHEMERIS_TYPE": 0, "CLASSIFICATION_TYPE": "U", "NORAD_CAT_ID": 50032, "ELEMENT_SET_NO": 999, "REV_AT_EPOCH": 22787, "BSTAR": 0.00010709646, "MEAN_MOTION_DOT": 5.256e-05, "MEAN_MOTION_DDOT": 0}, "tle": {"line1": "1 50032U 82092RU  25358.62831614  .00005256  00000+0  10710-3 0  9994", "line2": "2 50032  82.5629  46.3227 0016465 164.7636 195.4112 15.45809710227872"}}, "geometry": {"type": "Point", "coordinates": [145.54229325249008, 82.44644459370805]}}, {"type": "Feature", "properties": {"norad_id": 50058, "name": "COSMOS 1408 DEB", "group": "cosmos-1408-debris", "lat": 56.95415185079408, "lon": 67.70233177978645, "alt_km": 357.55859608073024, "timestamp": "2025-12-25T07:00:34.316323+00:00", "meta": {"OBJECT_NAME": "COSMOS 1408 DEB", "OBJECT_ID": "1982-092SW", "EPOCH": "2025-12-24T15:25:02.007840", "MEAN_MOTION": 15.6481298, "ECCENTRICITY": 0.00158336, "INCLINATION": 82.6118, "RA_OF_ASC_NODE": 56.8774, "ARG_OF_PERICENTER": 58.7344, "MEAN_ANOMALY": 301.5464, "EPHEMERIS_TYPE": 0, "CLASSIFICATION_TYPE": "U", "NORAD_CAT_ID": 50058, "ELEMENT_SET_NO": 999, "REV_AT_EPOCH": 22990, "BSTAR": 0.0003402487, "MEAN_MOTION_DOT": 0.00033436, "MEAN_MOTION_DDOT": 0}, "tle": {"line1": "1 50058U 82092SW  25358.64238435  .00033436  00000+0  34025-3 0  9992", "line2": "2 50058  82.6118  56.8774 0015833  58.7344 301.5464 15.64812980229903"}}, "geometry": {"type": "Point", "coordinates": [67.70233177978645, 56.95415185079408]}}, {"type": "Feature", "properties": {"norad_id": 50404, "name": "COSMOS 1408 DEB", "group": "cosmos-1408-debris", "lat": 79.60784867121647, "lon": -109.48241130113422, "alt_km": 475.0448982369189, "timestamp": "2025-12-25T07:00:34.316351+00:00", "meta": {"OBJECT_NAME": "COSMOS 1408 DEB", "OBJECT_ID": "1982-092ADS", "EPOCH": "2025-12-24T21:07:59.963232", "MEAN_MOTION": 15.1571343, "ECCENTRICITY": 0.0166865, "INCLINATION": 82.202, "RA_OF_ASC_NODE": 202.5864, "ARG_OF_PERICENTER": 157.1194, "MEAN_ANOMALY": 203.7589, "EPHEMERIS_TYPE": 0, "CLASSIFICATION_TYPE": "U", "NORAD_CAT_ID": 50404, "ELEMENT_SET_NO": 999, "REV_AT_EPOCH": 21377, "BSTAR": 0.0034307677, "MEAN_MOTION_DOT": 0.00094276, "MEAN_MOTION_DDOT": 0}, "tle": {"line1": "1 50404U 82092ADS 25358.88055513  .00094276  00000+0  34308-2 0  9999", "line2": "2 50404  82.2020 202.5864 0166865 157.1194 203.7589 15.15713430213770"}}, "geometry": {"type": "Point", "coordinates": [-109.48241130113422, 79.60784867121647]}}, {"type": "Feature", "properties": {"norad_id": 50621, "name": "COSMOS 1408 DEB", "group": "cosmos-1408-debris", "lat": 80.54251657236975, "lon": -170.4859651498467, "alt_km": 368.76388670096367, "timestamp": "2025-12-25T07:00:34.316365+00:00", "meta": {"OBJECT_NAME": "COSMOS 1408 DEB", "OBJECT_ID": "1982-092ALR", "EPOCH": "2025-12-24T10:33:08.293248", "MEAN_MOTION": 15.57249647, "ECCENTRICITY": 0.00291087, "INCLINATION": 82.5683, "RA_OF_ASC_NODE": 61.9949, "ARG_OF_PERICENTER": 110.4695, "MEAN_ANOMALY": 249.969, "EPHEMERIS_TYPE": 0, "CLASSIFICATION_TYPE": "U", "NORAD_CAT_ID": 50621, "ELEMENT_SET_NO": 999, "REV_AT_EPOCH": 22432, "BSTAR": 0.00038535081, "MEAN_MOTION_DOT": 0.00028709, "MEAN_MOTION_DDOT": 0}, "tle": {"line1": "1 50621U 82092ALR 25358.43967932  .00028709  00000+0  38535-3 0  9993", "line2": "2 50621  82.5683  61.9949 0029108 110.4695 249.9690 15.57249647224324"}}, "geometry": {"type": "Point", "coordinates": [-170.4859651498467, 80.54251657236975]}}]}